<?xml version="1.0" encoding="UTF-8"?>
<osm version="0.6" generator="Overpass API 0.7.57 93a4d346">
<note>The data included in this document is from www.openstreetmap.org. The data is made available under ODbL.</note>
<meta osm_base="2021-11-09T00:27:18Z" areas="2021-11-08T20:52:15Z"/>

<action type="modify">
<old>
  <node id="919581315" lat="45.7839494" lon="10.8322654" version="9" timestamp="2021-03-13T11:24:28Z" changeset="100949362" uid="270456" user="pyrog">
    <tag k="source" v="CAI"/>
    <tag k="description:it" v="luogo di posa posto alla congiunzione tra il sentiero CAI n. 4A e l'allacciante con il sentiero CAI n. 4"/>
    <tag k="destination" v="Fubia 0:10;(Navene) 1:10|Malcesine 1:00|Faigolo 0:30;San Michele (funivia) 1:00"/>
    <tag k="ele" v="438"/>
    <tag k="hiking" v="yes"/>
    <tag k="information" v="guidepost"/>
    <tag k="name" v="Sentieri CAI n. 4 e 4A"/>
    <tag k="operator" v="Club Alpino Italiano Sezione Cesare Battisti di Verona"/>
    <tag k="support" v="pole"/>
    <tag k="survey:date" v="2017-04-22"/>
    <tag k="tourism" v="information"/>
    <tag k="wikimedia_commons" v="File:004A W019 IMG 2790 W.jpg"/>
  </node>
</old>
<new>
  <node id="919581315" lat="45.7839494" lon="10.8322654" version="10" timestamp="2021-11-08T08:46:39Z" changeset="113511425" uid="3215770" user="Andrea Del Sarto">
    <tag k="description:it" v="luogo di posa posto alla congiunzione tra il sentiero CAI n. 4A e l'allacciante con il sentiero CAI n. 4"/>
    <tag k="destination" v="Fubia 0:10;(Navene) 1:10|Malcesine 1:00|Faigolo 0:30;San Michele (funivia) 1:00"/>
    <tag k="ele" v="438"/>
    <tag k="hiking" v="yes"/>
    <tag k="information" v="guidepost"/>
    <tag k="name" v="Sentieri CAI n. 4 e 4A"/>
    <tag k="operator" v="Club Alpino Italiano Sezione Cesare Battisti di Verona"/>
    <tag k="source" v="survey:CAI"/>
    <tag k="support" v="pole"/>
    <tag k="survey:date" v="2017-04-22"/>
    <tag k="tourism" v="information"/>
    <tag k="wikimedia_commons" v="File:004A W019 IMG 2790 W.jpg"/>
  </node>
</new>
</action>
<action type="modify">
<old>
  <node id="919581326" lat="45.7787566" lon="10.8336298" version="4" timestamp="2019-04-27T13:58:31Z" changeset="69640357" uid="3483980" user="Club Alpino Italiano Sezione Cesare Battisti di Verona">
    <tag k="source" v="CAI"/>
    <tag k="description:it" v="luogo di posa posto alla congiunzione tra i sentieri CAI n. 10 e 4A"/>
    <tag k="destination" v="Prai 2:10|Fubia 0:30;(Navene) 1:30|San Michele 0:30"/>
    <tag k="ele" v="571"/>
    <tag k="hiking" v="yes"/>
    <tag k="information" v="guidepost"/>
    <tag k="mtb" v="yes"/>
    <tag k="name" v="Sentieri CAI n. 10 e 4A"/>
    <tag k="operator" v="Club Alpino Italiano Sezione Cesare Battisti di Verona"/>
    <tag k="support" v="pole"/>
    <tag k="survey:date" v="2017-04-22"/>
    <tag k="tourism" v="information"/>
    <tag k="wikimedia_commons" v="File:004A W015 IMG 2783 W.jpg"/>
  </node>
</old>
<new>
  <node id="919581326" lat="45.7787566" lon="10.8336298" version="5" timestamp="2021-11-08T08:46:39Z" changeset="113511425" uid="3215770" user="Andrea Del Sarto">
    <tag k="description:it" v="luogo di posa posto alla congiunzione tra i sentieri CAI n. 10 e 4A"/>
    <tag k="destination" v="Prai 2:10|Fubia 0:30;(Navene) 1:30|San Michele 0:30"/>
    <tag k="ele" v="571"/>
    <tag k="hiking" v="yes"/>
    <tag k="information" v="guidepost"/>
    <tag k="mtb" v="yes"/>
    <tag k="name" v="Sentieri CAI n. 10 e 4A"/>
    <tag k="operator" v="Club Alpino Italiano Sezione Cesare Battisti di Verona"/>
    <tag k="source" v="survey:CAI"/>
    <tag k="support" v="pole"/>
    <tag k="survey:date" v="2017-04-22"/>
    <tag k="tourism" v="information"/>
    <tag k="wikimedia_commons" v="File:004A W015 IMG 2783 W.jpg"/>
  </node>
</new>
</action>
<action type="modify">
<old>
  <node id="3358237803" lat="45.6567165" lon="11.0482263" version="8" timestamp="2021-03-13T11:24:28Z" changeset="100949362" uid="270456" user="pyrog">
    <tag k="source" v="CAI"/>
    <tag k="destination" v="Corbane 0:45;Bosco Chiesanuova 1:00|Maregge 0:15;Vajo di Squaranto 1:15;Parparo di Sopra 2:30"/>
    <tag k="hiking" v="yes"/>
    <tag k="information" v="guidepost"/>
    <tag k="name" v="Bivio E5"/>
    <tag k="operator" v="Club Alpino Italiano Sezione di Bosco Chiesanuova"/>
    <tag k="support" v="pole"/>
    <tag k="tourism" v="information"/>
    <tag k="wikimedia_commons" v="File:OMIMG 20190422 150947.jpg"/>
  </node>
</old>
<new>
  <node id="3358237803" lat="45.6567165" lon="11.0482263" version="9" timestamp="2021-11-08T08:46:39Z" changeset="113511425" uid="3215770" user="Andrea Del Sarto">
    <tag k="destination" v="Corbane 0:45;Bosco Chiesanuova 1:00|Maregge 0:15;Vajo di Squaranto 1:15;Parparo di Sopra 2:30"/>
    <tag k="hiking" v="yes"/>
    <tag k="information" v="guidepost"/>
    <tag k="name" v="Bivio E5"/>
    <tag k="operator" v="Club Alpino Italiano Sezione di Bosco Chiesanuova"/>
    <tag k="source" v="survey:CAI"/>
    <tag k="support" v="pole"/>
    <tag k="tourism" v="information"/>
    <tag k="wikimedia_commons" v="File:OMIMG 20190422 150947.jpg"/>
  </node>
</new>
</action>
<action type="modify">
<old>
  <node id="3833512235" lat="45.6858029" lon="11.0873290" version="7" timestamp="2021-03-13T11:24:28Z" changeset="100949362" uid="270456" user="pyrog">
    <tag k="source" v="CAI"/>
    <tag k="destination" v="Passo Malera 0:45;Passo Pertica 1:30; Revolto 1:30|Malga Malera di Sotto 0:30; Parparo 1:00;Giazza 2:30"/>
    <tag k="ele" v="1494"/>
    <tag k="hiking" v="yes"/>
    <tag k="information" v="guidepost"/>
    <tag k="name" v="San Giorgio"/>
    <tag k="operator" v="Club Alpino Italiano Sezione di Bosco Chiesanuova"/>
    <tag k="support" v="pole"/>
    <tag k="tourism" v="information"/>
    <tag k="wikimedia_commons" v="File:Segnavia sentiero CAI San Giorgio.jpg"/>
  </node>
</old>
<new>
  <node id="3833512235" lat="45.6858029" lon="11.0873290" version="8" timestamp="2021-11-08T08:46:39Z" changeset="113511425" uid="3215770" user="Andrea Del Sarto">
    <tag k="destination" v="Passo Malera 0:45;Passo Pertica 1:30; Revolto 1:30|Malga Malera di Sotto 0:30; Parparo 1:00;Giazza 2:30"/>
    <tag k="ele" v="1494"/>
    <tag k="hiking" v="yes"/>
    <tag k="information" v="guidepost"/>
    <tag k="name" v="San Giorgio"/>
    <tag k="operator" v="Club Alpino Italiano Sezione di Bosco Chiesanuova"/>
    <tag k="source" v="survey:CAI"/>
    <tag k="support" v="pole"/>
    <tag k="tourism" v="information"/>
    <tag k="wikimedia_commons" v="File:Segnavia sentiero CAI San Giorgio.jpg"/>
  </node>
</new>
</action>
<action type="modify">
<old>
  <node id="4670573729" lat="45.6863067" lon="11.1064226" version="4" timestamp="2021-03-13T11:24:28Z" changeset="100949362" uid="270456" user="pyrog">
    <tag k="source" v="CAI"/>
    <tag k="destination" v="Bella Lasta 0:10;Passo Pertica 0:40;Rifugio Revolto 0:40"/>
    <tag k="ele" v="1722"/>
    <tag k="hiking" v="yes"/>
    <tag k="information" v="guidepost"/>
    <tag k="name" v="Passo Malera"/>
    <tag k="operator" v="Club Alpino Italiano Sezione di Bosco Chiesanuova"/>
    <tag k="support" v="pole"/>
    <tag k="tourism" v="information"/>
    <tag k="wikimedia_commons" v="File:Segnavia sentiero CAI 287.jpg"/>
  </node>
</old>
<new>
  <node id="4670573729" lat="45.6863067" lon="11.1064226" version="5" timestamp="2021-11-08T08:46:39Z" changeset="113511425" uid="3215770" user="Andrea Del Sarto">
    <tag k="destination" v="Bella Lasta 0:10;Passo Pertica 0:40;Rifugio Revolto 0:40"/>
    <tag k="ele" v="1722"/>
    <tag k="hiking" v="yes"/>
    <tag k="information" v="guidepost"/>
    <tag k="name" v="Passo Malera"/>
    <tag k="operator" v="Club Alpino Italiano Sezione di Bosco Chiesanuova"/>
    <tag k="source" v="survey:CAI"/>
    <tag k="support" v="pole"/>
    <tag k="tourism" v="information"/>
    <tag k="wikimedia_commons" v="File:Segnavia sentiero CAI 287.jpg"/>
  </node>
</new>
</action>
<action type="modify">
<old>
  <node id="6387269978" lat="45.7687734" lon="10.8323632" version="5" timestamp="2019-04-27T13:58:31Z" changeset="69640357" uid="3483980" user="Club Alpino Italiano Sezione Cesare Battisti di Verona">
    <tag k="source" v="CAI"/>
    <tag k="description:it" v="inizio sentieri CAI n. 2,4A e 13 dalla stazione intermedia della funivia Malcesine - Monte Baldo in località San Michele"/>
    <tag k="destination" v="Il Signor 0:45;Piombi 1:20;Tratto Spino 3:00|Prai 1:30;Ventrar 2:30|Faigolo 0:25;Fubia 1:00;Navene 2:00|Chiesa di San Michele 0:10;San Maggiore 0:45"/>
    <tag k="ele" v="567"/>
    <tag k="hiking" v="yes"/>
    <tag k="information" v="guidepost"/>
    <tag k="name" v="San Michele"/>
    <tag k="operator" v="Club Alpino Italiano Sezione Cesare Battisti di Verona"/>
    <tag k="support" v="pole"/>
    <tag k="survey:date" v="2017-06-04"/>
    <tag k="tourism" v="information"/>
    <tag k="wikimedia_commons" v="File:004A W001 IMG 2764 W.jpg"/>
  </node>
</old>
<new>
  <node id="6387269978" lat="45.7687734" lon="10.8323632" version="6" timestamp="2021-11-08T08:46:39Z" changeset="113511425" uid="3215770" user="Andrea Del Sarto">
    <tag k="description:it" v="inizio sentieri CAI n. 2,4A e 13 dalla stazione intermedia della funivia Malcesine - Monte Baldo in località San Michele"/>
    <tag k="destination" v="Il Signor 0:45;Piombi 1:20;Tratto Spino 3:00|Prai 1:30;Ventrar 2:30|Faigolo 0:25;Fubia 1:00;Navene 2:00|Chiesa di San Michele 0:10;San Maggiore 0:45"/>
    <tag k="ele" v="567"/>
    <tag k="hiking" v="yes"/>
    <tag k="information" v="guidepost"/>
    <tag k="name" v="San Michele"/>
    <tag k="operator" v="Club Alpino Italiano Sezione Cesare Battisti di Verona"/>
    <tag k="source" v="survey:CAI"/>
    <tag k="support" v="pole"/>
    <tag k="survey:date" v="2017-06-04"/>
    <tag k="tourism" v="information"/>
    <tag k="wikimedia_commons" v="File:004A W001 IMG 2764 W.jpg"/>
  </node>
</new>
</action>
<action type="modify">
<old>
  <node id="6387408192" lat="45.7687438" lon="10.8328894" version="4" timestamp="2019-04-27T13:58:31Z" changeset="69640357" uid="3483980" user="Club Alpino Italiano Sezione Cesare Battisti di Verona">
    <tag k="source" v="CAI"/>
    <tag k="description:it" v="Sentieri CAI n.2, 4A e 13 con indicazioni sui soli sentieri 2 e 13 posto vicino al traliccio della linea ad alta tensione"/>
    <tag k="destination" v="destination=Il Signor 0:45;Piombi 1:20;Tratto Spino 3:00|San Maggiore 0:45"/>
    <tag k="ele" v="573"/>
    <tag k="hiking" v="yes"/>
    <tag k="information" v="guidepost"/>
    <tag k="name" v="Sentieri CAI n.2, 4A e 13"/>
    <tag k="operator" v="Club Alpino Italiano Sezione Cesare Battisti di Verona"/>
    <tag k="support" v="pole"/>
    <tag k="survey:date" v="2017-06-04"/>
    <tag k="tourism" v="information"/>
    <tag k="wikimedia_commons" v="File:004A W002 IMG 2766 W.jpg"/>
  </node>
</old>
<new>
  <node id="6387408192" lat="45.7687438" lon="10.8328894" version="5" timestamp="2021-11-08T08:46:39Z" changeset="113511425" uid="3215770" user="Andrea Del Sarto">
    <tag k="description:it" v="Sentieri CAI n.2, 4A e 13 con indicazioni sui soli sentieri 2 e 13 posto vicino al traliccio della linea ad alta tensione"/>
    <tag k="destination" v="destination=Il Signor 0:45;Piombi 1:20;Tratto Spino 3:00|San Maggiore 0:45"/>
    <tag k="ele" v="573"/>
    <tag k="hiking" v="yes"/>
    <tag k="information" v="guidepost"/>
    <tag k="name" v="Sentieri CAI n.2, 4A e 13"/>
    <tag k="operator" v="Club Alpino Italiano Sezione Cesare Battisti di Verona"/>
    <tag k="source" v="survey:CAI"/>
    <tag k="support" v="pole"/>
    <tag k="survey:date" v="2017-06-04"/>
    <tag k="tourism" v="information"/>
    <tag k="wikimedia_commons" v="File:004A W002 IMG 2766 W.jpg"/>
  </node>
</new>
</action>
<action type="modify">
<old>
  <node id="6387444311" lat="45.7688693" lon="10.8337312" version="3" timestamp="2019-04-27T13:58:31Z" changeset="69640357" uid="3483980" user="Club Alpino Italiano Sezione Cesare Battisti di Verona">
    <tag k="source" v="CAI"/>
    <tag k="description:it" v="congiunzione tra i sentieri CAI n. 2 e 4A con il sentiero 13."/>
    <tag k="destination" v="Monte Baldo|El Signor 0:45;Piobi 1:20;Tratto Spino 3:00|Il Signor 0:45;Prai 1:30;Ventrar 2:30|Chiesa di San Michele 0:10;San Maggiore 0:45"/>
    <tag k="ele" v="580"/>
    <tag k="hiking" v="yes"/>
    <tag k="information" v="guidepost"/>
    <tag k="name" v="Sentieri CAI n. 2,4A e 13"/>
    <tag k="operator" v="Club Alpino Italiano Sezione Cesare Battisti di Verona"/>
    <tag k="support" v="pole"/>
    <tag k="survey:date" v="2017-06-04"/>
    <tag k="tourism" v="information"/>
    <tag k="wikimedia_commons" v="File:004A W003 IMG 2768 W.jpg"/>
  </node>
</old>
<new>
  <node id="6387444311" lat="45.7688693" lon="10.8337312" version="4" timestamp="2021-11-08T08:46:39Z" changeset="113511425" uid="3215770" user="Andrea Del Sarto">
    <tag k="description:it" v="congiunzione tra i sentieri CAI n. 2 e 4A con il sentiero 13."/>
    <tag k="destination" v="Monte Baldo|El Signor 0:45;Piobi 1:20;Tratto Spino 3:00|Il Signor 0:45;Prai 1:30;Ventrar 2:30|Chiesa di San Michele 0:10;San Maggiore 0:45"/>
    <tag k="ele" v="580"/>
    <tag k="hiking" v="yes"/>
    <tag k="information" v="guidepost"/>
    <tag k="name" v="Sentieri CAI n. 2,4A e 13"/>
    <tag k="operator" v="Club Alpino Italiano Sezione Cesare Battisti di Verona"/>
    <tag k="source" v="survey:CAI"/>
    <tag k="support" v="pole"/>
    <tag k="survey:date" v="2017-06-04"/>
    <tag k="tourism" v="information"/>
    <tag k="wikimedia_commons" v="File:004A W003 IMG 2768 W.jpg"/>
  </node>
</new>
</action>
<action type="modify">
<old>
  <node id="6387819255" lat="45.7717238" lon="10.8361897" version="3" timestamp="2019-04-27T13:58:31Z" changeset="69640357" uid="3483980" user="Club Alpino Italiano Sezione Cesare Battisti di Verona">
    <tag k="source" v="CAI"/>
    <tag k="description:it" v="congiunzione tra i sentieri CAI n. 2 con il sentiero 4A"/>
    <tag k="destination" v="El Signor 0:35;Piombi 1:10;Tratto Spino 2:50|San Michele(Funivia) 0:05|Il Signor 0:35;Prai 1:20;Ventrar 02:20"/>
    <tag k="ele" v="653"/>
    <tag k="hiking" v="yes"/>
    <tag k="information" v="guidepost"/>
    <tag k="name" v="Sentieri CAI n. 2 e 4A"/>
    <tag k="operator" v="Club Alpino Italiano Sezione Cesare Battisti di Verona"/>
    <tag k="support" v="pole"/>
    <tag k="survey:date" v="2017-06-04"/>
    <tag k="tourism" v="information"/>
    <tag k="wikimedia_commons" v="File:004A W008 IMG 2774 W.jpg"/>
  </node>
</old>
<new>
  <node id="6387819255" lat="45.7717238" lon="10.8361897" version="4" timestamp="2021-11-08T08:46:39Z" changeset="113511425" uid="3215770" user="Andrea Del Sarto">
    <tag k="description:it" v="congiunzione tra i sentieri CAI n. 2 con il sentiero 4A"/>
    <tag k="destination" v="El Signor 0:35;Piombi 1:10;Tratto Spino 2:50|San Michele(Funivia) 0:05|Il Signor 0:35;Prai 1:20;Ventrar 02:20"/>
    <tag k="ele" v="653"/>
    <tag k="hiking" v="yes"/>
    <tag k="information" v="guidepost"/>
    <tag k="name" v="Sentieri CAI n. 2 e 4A"/>
    <tag k="operator" v="Club Alpino Italiano Sezione Cesare Battisti di Verona"/>
    <tag k="source" v="survey:CAI"/>
    <tag k="support" v="pole"/>
    <tag k="survey:date" v="2017-06-04"/>
    <tag k="tourism" v="information"/>
    <tag k="wikimedia_commons" v="File:004A W008 IMG 2774 W.jpg"/>
  </node>
</new>
</action>
<action type="modify">
<old>
  <node id="6387858090" lat="45.7717759" lon="10.8361555" version="3" timestamp="2019-04-27T13:58:32Z" changeset="69640357" uid="3483980" user="Club Alpino Italiano Sezione Cesare Battisti di Verona">
    <tag k="source" v="CAI"/>
    <tag k="description:it" v="sentiero CAI n.4A"/>
    <tag k="destination" v="Faigolo 0:15;Fubia 0:50;(Navene) 1:50"/>
    <tag k="ele" v="653"/>
    <tag k="hiking" v="yes"/>
    <tag k="information" v="guidepost"/>
    <tag k="name" v="Sentiero CAI n.4A"/>
    <tag k="operator" v="Club Alpino Italiano Sezione Cesare Battisti di Verona"/>
    <tag k="support" v="pole"/>
    <tag k="survey:date" v="2017-04-22"/>
    <tag k="tourism" v="information"/>
    <tag k="wikimedia_commons" v="File:004A W008 IMG 2775 W.jpg"/>
  </node>
</old>
<new>
  <node id="6387858090" lat="45.7717759" lon="10.8361555" version="4" timestamp="2021-11-08T08:46:39Z" changeset="113511425" uid="3215770" user="Andrea Del Sarto">
    <tag k="description:it" v="sentiero CAI n.4A"/>
    <tag k="destination" v="Faigolo 0:15;Fubia 0:50;(Navene) 1:50"/>
    <tag k="ele" v="653"/>
    <tag k="hiking" v="yes"/>
    <tag k="information" v="guidepost"/>
    <tag k="name" v="Sentiero CAI n.4A"/>
    <tag k="operator" v="Club Alpino Italiano Sezione Cesare Battisti di Verona"/>
    <tag k="source" v="survey:CAI"/>
    <tag k="support" v="pole"/>
    <tag k="survey:date" v="2017-04-22"/>
    <tag k="tourism" v="information"/>
    <tag k="wikimedia_commons" v="File:004A W008 IMG 2775 W.jpg"/>
  </node>
</new>
</action>

</osm>
